{
  "type": "FeatureCollection",
  "metadata": {
    "title": "H-CAM Gujarat operational reference",
    "description": "A lightweight local reference layer used only when the private Gujarat basemap archive is unavailable. It is not an authoritative boundary dataset.",
    "source": "H-CAM local operational reference"
  },
  "features": [
    {
      "type": "Feature",
      "properties": { "kind": "coverage", "name": "Gujarat operational coverage" },
      "geometry": {
        "type": "Polygon",
        "coordinates": [
          [
            [68.15, 24.75],
            [68.45, 23.55],
            [69.25, 22.65],
            [69.7, 21.55],
            [70.85, 20.65],
            [72.2, 20.15],
            [73.0, 20.55],
            [73.85, 21.1],
            [74.55, 21.9],
            [74.85, 22.85],
            [74.5, 23.75],
            [73.95, 24.55],
            [72.85, 24.9],
            [71.65, 24.75],
            [70.6, 24.95],
            [69.45, 24.95],
            [68.15, 24.75]
          ]
        ]
      }
    },
    {
      "type": "Feature",
      "properties": { "kind": "corridor", "name": "Saurashtra corridor" },
      "geometry": {
        "type": "LineString",
        "coordinates": [
          [69.67, 23.24],
          [70.06, 22.47],
          [70.8, 22.3],
          [72.14, 21.76],
          [72.83, 21.17]
        ]
      }
    },
    {
      "type": "Feature",
      "properties": { "kind": "corridor", "name": "Central Gujarat corridor" },
      "geometry": {
        "type": "LineString",
        "coordinates": [
          [70.8, 22.3],
          [72.57, 23.02],
          [72.64, 23.22],
          [73.18, 22.31],
          [72.83, 21.17]
        ]
      }
    },
    {
      "type": "Feature",
      "properties": { "kind": "corridor", "name": "Northern Gujarat corridor" },
      "geometry": {
        "type": "LineString",
        "coordinates": [
          [69.67, 23.24],
          [72.57, 23.02],
          [72.64, 23.22],
          [73.95, 24.1]
        ]
      }
    },
    {
      "type": "Feature",
      "properties": { "kind": "city", "name": "Bhuj" },
      "geometry": { "type": "Point", "coordinates": [69.67, 23.24] }
    },
    {
      "type": "Feature",
      "properties": { "kind": "city", "name": "Jamnagar" },
      "geometry": { "type": "Point", "coordinates": [70.06, 22.47] }
    },
    {
      "type": "Feature",
      "properties": { "kind": "city", "name": "Rajkot" },
      "geometry": { "type": "Point", "coordinates": [70.8, 22.3] }
    },
    {
      "type": "Feature",
      "properties": { "kind": "city", "name": "Bhavnagar" },
      "geometry": { "type": "Point", "coordinates": [72.14, 21.76] }
    },
    {
      "type": "Feature",
      "properties": { "kind": "city", "name": "Ahmedabad" },
      "geometry": { "type": "Point", "coordinates": [72.57, 23.02] }
    },
    {
      "type": "Feature",
      "properties": { "kind": "city", "name": "Gandhinagar" },
      "geometry": { "type": "Point", "coordinates": [72.64, 23.22] }
    },
    {
      "type": "Feature",
      "properties": { "kind": "city", "name": "Vadodara" },
      "geometry": { "type": "Point", "coordinates": [73.18, 22.31] }
    },
    {
      "type": "Feature",
      "properties": { "kind": "city", "name": "Surat" },
      "geometry": { "type": "Point", "coordinates": [72.83, 21.17] }
    }
  ]
}
